[Satellite]
VERSION=1.1
NAME=IRIDIUM 151 [+]
NICKNAME=IRIDIUM 151 [+]
TLE1=1 43074U 17083E   19317.37656532  .00000074  00000-0  19396-4 0  9998
TLE2=2 43074  86.3990 248.2005 0002579  86.8271 273.3220 14.34220126 99025
STATUS=0
